[{"OBJECT_NAME":"STARLINK-3893","OBJECT_ID":"2022-051AV","EPOCH":"2026-03-09T10:58:52.127328","MEAN_MOTION":15.08831701,"ECCENTRICITY":0.00013143,"INCLINATION":53.216,"RA_OF_ASC_NODE":135.1615,"ARG_OF_PERICENTER":83.0983,"MEAN_ANOMALY":277.0158,"EPHEMERIS_TYPE":0,"CLASSIFICATION_TYPE":"U","NORAD_CAT_ID":52579,"ELEMENT_SET_NO":999,"REV_AT_EPOCH":21134,"BSTAR":-7.6535994e-5,"MEAN_MOTION_DOT":-1.505e-5,"MEAN_MOTION_DDOT":0},{"OBJECT_NAME":"ASTRO-H (HITOMI)","OBJECT_ID":"2016-012A","EPOCH":"2026-03-09T04:06:47.322720","MEAN_MOTION":15.10001629,"ECCENTRICITY":0.0009877,"INCLINATION":31.0008,"RA_OF_ASC_NODE":359.8923,"ARG_OF_PERICENTER":325.8962,"MEAN_ANOMALY":34.1041,"EPHEMERIS_TYPE":0,"CLASSIFICATION_TYPE":"U","NORAD_CAT_ID":41337,"ELEMENT_SET_NO":999,"REV_AT_EPOCH":55215,"BSTAR":0.00025536822,"MEAN_MOTION_DOT":4.351e-5,"MEAN_MOTION_DDOT":0}]
